{
  "norad_id": 57749,
  "name": "STARLINK-30366",
  "history": [
    {
      "epoch": "2026-03-28T20:00:01.999872",
      "apogee_km": 516.9083768976088,
      "perigee_km": 515.0890144875148,
      "latitude_deg": 42.76058404899825,
      "longitude_deg": 34.902222079923376,
      "semi_major_axis_km": 6894.135695692561,
      "eccentricity": 0.00013195,
      "inclination_deg": 43.0013,
      "raan_deg": 66.5899,
      "arg_perigee_deg": 269.6701,
      "mean_anomaly_deg": 235.3155,
      "mean_motion_rev_day": 15.16641799
    },
    {
      "epoch": "2026-03-29T04:00:01.999584",
      "apogee_km": 514.4172366213716,
      "perigee_km": 512.1251542555683,
      "latitude_deg": 28.5734286941519,
      "longitude_deg": 66.90222175978124,
      "semi_major_axis_km": 6891.408195438469,
      "eccentricity": 0.0001663,
      "inclination_deg": 43.0009,
      "raan_deg": 64.733,
      "arg_perigee_deg": 260.0076,
      "mean_anomaly_deg": 268.06,
      "mean_motion_rev_day": 15.17542279
    }
  ]
}